[
  {
    "OBJECT_NAME": "LANDSAT 8",
    "OBJECT_ID": "2013-008A",
    "EPOCH": "2026-07-23T15:01:11.451072",
    "MEAN_MOTION": 14.57098375,
    "ECCENTRICITY": 0.0001337,
    "INCLINATION": 98.2283,
    "RA_OF_ASC_NODE": 274.3248,
    "ARG_OF_PERICENTER": 91.7469,
    "MEAN_ANOMALY": 268.3883,
    "EPHEMERIS_TYPE": 0,
    "CLASSIFICATION_TYPE": "U",
    "NORAD_CAT_ID": 39084,
    "ELEMENT_SET_NO": 999,
    "REV_AT_EPOCH": 70320,
    "BSTAR": 0.000063755,
    "MEAN_MOTION_DOT": 0.00000242,
    "MEAN_MOTION_DDOT": 0
  }
]
